{
  "type": "FeatureCollection",
  "features": [
    {
      "type": "Feature",
      "properties": {
        "norad_id": 30153,
        "name": "FENGYUN 1C DEB",
        "group": "fengyun-1c-debris",
        "lat": -11.481086961250483,
        "lon": 161.6715668676048,
        "alt_km": 1109.2920409124035,
        "timestamp": "2025-12-18T19:29:52.818785+00:00",
        "meta_object_name": "FENGYUN 1C DEB",
        "meta_object_id": "1999-025TJ",
        "meta_epoch": "2025-12-17T21:56:39.857280",
        "meta_mean_motion": 13.78784836,
        "meta_eccentricity": 0.02006651,
        "meta_inclination": 100.467,
        "meta_ra_of_asc_node": 342.8326,
        "meta_arg_of_pericenter": 352.5028,
        "meta_mean_anomaly": 64.5204,
        "meta_ephemeris_type": 0,
        "meta_classification_type": "U",
        "meta_norad_cat_id": 30153,
        "meta_element_set_no": 999,
        "meta_rev_at_epoch": 94846,
        "meta_bstar": 0.0010652678,
        "meta_mean_motion_dot": 1.206e-05,
        "meta_mean_motion_ddot": 0,
        "tle_line1": "1 30153U 99025TJ  25351.91435020  .00001206  00000+0  10653-2 0  9992",
        "tle_line2": "2 30153 100.4670 342.8326 0200665 352.5028  64.5204 13.78784836948461"
      },
      "geometry": {
        "type": "Point",
        "coordinates": [
          161.6715668676048,
          -11.481086961250483
        ]
      }
    },
    {
      "type": "Feature",
      "properties": {
        "norad_id": 30154,
        "name": "FENGYUN 1C DEB",
        "group": "fengyun-1c-debris",
        "lat": -59.4276694955411,
        "lon": -160.56182185399666,
        "alt_km": 877.4293769657488,
        "timestamp": "2025-12-18T19:29:52.818795+00:00",
        "meta_object_name": "FENGYUN 1C DEB",
        "meta_object_id": "1999-025TK",
        "meta_epoch": "2025-12-18T01:10:08.583744",
        "meta_mean_motion": 13.86008761,
        "meta_eccentricity": 0.01829924,
        "meta_inclination": 98.4493,
        "meta_ra_of_asc_node": 33.3214,
        "meta_arg_of_pericenter": 184.316,
        "meta_mean_anomaly": 205.8411,
        "meta_ephemeris_type": 0,
        "meta_classification_type": "U",
        "meta_norad_cat_id": 30154,
        "meta_element_set_no": 999,
        "meta_rev_at_epoch": 95058,
        "meta_bstar": 0.001303302,
        "meta_mean_motion_dot": 1.672e-05,
        "meta_mean_motion_ddot": 0,
        "tle_line1": "1 30154U 99025TK  25352.04871046  .00001672  00000+0  13033-2 0  9992",
        "tle_line2": "2 30154  98.4493  33.3214 0182992 184.3160 205.8411 13.86008761950580"
      },
      "geometry": {
        "type": "Point",
        "coordinates": [
          -160.56182185399666,
          -59.4276694955411
        ]
      }
    },
    {
      "type": "Feature",
      "properties": {
        "norad_id": 30155,
        "name": "FENGYUN 1C DEB",
        "group": "fengyun-1c-debris",
        "lat": -10.128053073110374,
        "lon": -115.29859919729203,
        "alt_km": 1120.080365741198,
        "timestamp": "2025-12-18T19:29:52.818804+00:00",
        "meta_object_name": "FENGYUN 1C DEB",
        "meta_object_id": "1999-025TL",
        "meta_epoch": "2025-12-18T04:34:35.420736",
        "meta_mean_motion": 13.73823835,
        "meta_eccentricity": 0.02421097,
        "meta_inclination": 99.7516,
        "meta_ra_of_asc_node": 65.8274,
        "meta_arg_of_pericenter": 329.5963,
        "meta_mean_anomaly": 29.1328,
        "meta_ephemeris_type": 0,
        "meta_classification_type": "U",
        "meta_norad_cat_id": 30155,
        "meta_element_set_no": 999,
        "meta_rev_at_epoch": 93939,
        "meta_bstar": 0.0016685733,
        "meta_mean_motion_dot": 1.882e-05,
        "meta_mean_motion_ddot": 0,
        "tle_line1": "1 30155U 99025TL  25352.19068774  .00001882  00000+0  16686-2 0  9995",
        "tle_line2": "2 30155  99.7516  65.8274 0242109 329.5963  29.1328 13.73823835939391"
      },
      "geometry": {
        "type": "Point",
        "coordinates": [
          -115.29859919729203,
          -10.128053073110374
        ]
      }
    },
    {
      "type": "Feature",
      "properties": {
        "norad_id": 30156,
        "name": "FENGYUN 1C DEB",
        "group": "fengyun-1c-debris",
        "lat": -57.13524288560429,
        "lon": 125.40971498984607,
        "alt_km": 823.4830148350147,
        "timestamp": "2025-12-18T19:29:52.818814+00:00",
        "meta_object_name": "FENGYUN 1C DEB",
        "meta_object_id": "1999-025TM",
        "meta_epoch": "2025-12-18T04:30:31.826304",
        "meta_mean_motion": 13.80829064,
        "meta_eccentricity": 0.01988802,
        "meta_inclination": 98.9185,
        "meta_ra_of_asc_node": 318.8863,
        "meta_arg_of_pericenter": 248.2231,
        "meta_mean_anomaly": 127.3292,
        "meta_ephemeris_type": 0,
        "meta_classification_type": "U",
        "meta_norad_cat_id": 30156,
        "meta_element_set_no": 999,
        "meta_rev_at_epoch": 94766,
        "meta_bstar": 0.00097910584,
        "meta_mean_motion_dot": 1.155e-05,
        "meta_mean_motion_ddot": 0,
        "tle_line1": "1 30156U 99025TM  25352.18786836  .00001155  00000+0  97911-3 0  9995",
        "tle_line2": "2 30156  98.9185 318.8863 0198880 248.2231 127.3292 13.80829064947669"
      },
      "geometry": {
        "type": "Point",
        "coordinates": [
          125.40971498984607,
          -57.13524288560429
        ]
      }
    },
    {
      "type": "Feature",
      "properties": {
        "norad_id": 30157,
        "name": "FENGYUN 1C DEB",
        "group": "fengyun-1c-debris",
        "lat": 59.10376355965727,
        "lon": -75.13792493317145,
        "alt_km": 720.6895518036481,
        "timestamp": "2025-12-18T19:29:52.818824+00:00",
        "meta_object_name": "FENGYUN 1C DEB",
        "meta_object_id": "1999-025TN",
        "meta_epoch": "2025-12-18T05:54:22.891392",
        "meta_mean_motion": 14.45176122,
        "meta_eccentricity": 0.00371397,
        "meta_inclination": 98.7167,
        "meta_ra_of_asc_node": 89.4254,
        "meta_arg_of_pericenter": 177.0451,
        "meta_mean_anomaly": 238.3523,
        "meta_ephemeris_type": 0,
        "meta_classification_type": "U",
        "meta_norad_cat_id": 30157,
        "meta_element_set_no": 999,
        "meta_rev_at_epoch": 98152,
        "meta_bstar": 0.0017628744,
        "meta_mean_motion_dot": 6.184e-05,
        "meta_mean_motion_ddot": 0,
        "tle_line1": "1 30157U 99025TN  25352.24609828  .00006184  00000+0  17629-2 0  9992",
        "tle_line2": "2 30157  98.7167  89.4254 0037139 177.0451 238.3523 14.45176122981520"
      },
      "geometry": {
        "type": "Point",
        "coordinates": [
          -75.13792493317145,
          59.10376355965727
        ]
      }
    },
    {
      "type": "Feature",
      "properties": {
        "norad_id": 30160,
        "name": "FENGYUN 1C DEB",
        "group": "fengyun-1c-debris",
        "lat": 77.86296738338763,
        "lon": 167.35019179966108,
        "alt_km": 841.9583745608161,
        "timestamp": "2025-12-18T19:29:52.818834+00:00",
        "meta_object_name": "FENGYUN 1C DEB",
        "meta_object_id": "1999-025TR",
        "meta_epoch": "2025-12-18T03:01:46.315200",
        "meta_mean_motion": 13.4289786,
        "meta_eccentricity": 0.03430761,
        "meta_inclination": 98.8867,
        "meta_ra_of_asc_node": 300.0682,
        "meta_arg_of_pericenter": 114.2198,
        "meta_mean_anomaly": 269.4082,
        "meta_ephemeris_type": 0,
        "meta_classification_type": "U",
        "meta_norad_cat_id": 30160,
        "meta_element_set_no": 999,
        "meta_rev_at_epoch": 92486,
        "meta_bstar": 0.00088988286,
        "meta_mean_motion_dot": 6.85e-06,
        "meta_mean_motion_ddot": 0,
        "tle_line1": "1 30160U 99025TR  25352.12623050  .00000685  00000+0  88988-3 0  9993",
        "tle_line2": "2 30160  98.8867 300.0682 0343076 114.2198 269.4082 13.42897860924864"
      },
      "geometry": {
        "type": "Point",
        "coordinates": [
          167.35019179966108,
          77.86296738338763
        ]
      }
    },
    {
      "type": "Feature",
      "properties": {
        "norad_id": 30161,
        "name": "FENGYUN 1C DEB",
        "group": "fengyun-1c-debris",
        "lat": 18.72292156066395,
        "lon": 164.1500842797364,
        "alt_km": 1033.038556788394,
        "timestamp": "2025-12-18T19:29:52.818844+00:00",
        "meta_object_name": "FENGYUN 1C DEB",
        "meta_object_id": "1999-025TS",
        "meta_epoch": "2025-12-17T21:39:38.446848",
        "meta_mean_motion": 13.49735838,
        "meta_eccentricity": 0.03279257,
        "meta_inclination": 100.5051,
        "meta_ra_of_asc_node": 339.5848,
        "meta_arg_of_pericenter": 245.4196,
        "meta_mean_anomaly": 180.1342,
        "meta_ephemeris_type": 0,
        "meta_classification_type": "U",
        "meta_norad_cat_id": 30161,
        "meta_element_set_no": 999,
        "meta_rev_at_epoch": 92629,
        "meta_bstar": 0.0014277525,
        "meta_mean_motion_dot": 1.211e-05,
        "meta_mean_motion_ddot": 0,
        "tle_line1": "1 30161U 99025TS  25351.90252832  .00001211  00000+0  14278-2 0  9991",
        "tle_line2": "2 30161 100.5051 339.5848 0327925 245.4196 180.1342 13.49735838926292"
      },
      "geometry": {
        "type": "Point",
        "coordinates": [
          164.1500842797364,
          18.72292156066395
        ]
      }
    }
  ]
}